CCSDS_OMM_VERS = 2.0
CREATION_DATE  = 
ORIGINATOR     = 

OBJECT_NAME    = UNKNOWN
OBJECT_ID      = 
CENTER_NAME    = EARTH
REF_FRAME      = TEME
TIME_SYSTEM    = UTC
MEAN_ELEMENT_THEORY = SGP/SGP4

EPOCH          = 2025-11-01T10:15:38.613600
MEAN_MOTION    = 12.92536517
ECCENTRICITY   = .00309017
INCLINATION    = 90.2445
RA_OF_ASC_NODE = 1.0064
ARG_OF_PERICENTER = 154.7653
MEAN_ANOMALY   = 205.4982

EPHEMERIS_TYPE = 0
CLASSIFICATION_TYPE = U
NORAD_CAT_ID   = 270093
ELEMENT_SET_NO = 999
REV_AT_EPOCH   = 27984
BSTAR          = .17188957E-3
MEAN_MOTION_DOT = .54E-6
MEAN_MOTION_DDOT = 0

CCSDS_OMM_VERS = 2.0
CREATION_DATE  = 
ORIGINATOR     = 

OBJECT_NAME    = UNKNOWN
OBJECT_ID      = 
CENTER_NAME    = EARTH
REF_FRAME      = TEME
TIME_SYSTEM    = UTC
MEAN_ELEMENT_THEORY = SGP/SGP4

EPOCH          = 2025-11-10T15:51:24.549120
MEAN_MOTION    = 12.23902298
ECCENTRICITY   = .01202382
INCLINATION    = 102.5763
RA_OF_ASC_NODE = 290.4506
ARG_OF_PERICENTER = 317.1487
MEAN_ANOMALY   = 42.0243

EPHEMERIS_TYPE = 0
CLASSIFICATION_TYPE = U
NORAD_CAT_ID   = 270094
ELEMENT_SET_NO = 999
REV_AT_EPOCH   = 26617
BSTAR          = .74762087E-3
MEAN_MOTION_DOT = .37E-6
MEAN_MOTION_DDOT = 0

CCSDS_OMM_VERS = 2.0
CREATION_DATE  = 
ORIGINATOR     = 

OBJECT_NAME    = UNKNOWN
OBJECT_ID      = 
CENTER_NAME    = EARTH
REF_FRAME      = TEME
TIME_SYSTEM    = UTC
MEAN_ELEMENT_THEORY = SGP/SGP4

EPOCH          = 2025-11-02T21:44:47.614560
MEAN_MOTION    = 12.97241616
ECCENTRICITY   = .00237828
INCLINATION    = 90.2502
RA_OF_ASC_NODE = 6.7722
ARG_OF_PERICENTER = 332.3474
MEAN_ANOMALY   = 27.6380

EPHEMERIS_TYPE = 0
CLASSIFICATION_TYPE = U
NORAD_CAT_ID   = 270095
ELEMENT_SET_NO = 999
REV_AT_EPOCH   = 28090
BSTAR          = .53045092E-3
MEAN_MOTION_DOT = .161E-5
MEAN_MOTION_DDOT = 0

CCSDS_OMM_VERS = 2.0
CREATION_DATE  = 
ORIGINATOR     = 

OBJECT_NAME    = UNKNOWN
OBJECT_ID      = 
CENTER_NAME    = EARTH
REF_FRAME      = TEME
TIME_SYSTEM    = UTC
MEAN_ELEMENT_THEORY = SGP/SGP4

EPOCH          = 2025-11-09T07:21:34.542720
MEAN_MOTION    = 14.32590035
ECCENTRICITY   = .00136885
INCLINATION    = 98.6853
RA_OF_ASC_NODE = 327.2211
ARG_OF_PERICENTER = 23.1802
MEAN_ANOMALY   = 336.9997

EPHEMERIS_TYPE = 0
CLASSIFICATION_TYPE = U
NORAD_CAT_ID   = 270096
ELEMENT_SET_NO = 999
REV_AT_EPOCH   = 31064
BSTAR          = .225275E-3
MEAN_MOTION_DOT = .567E-5
MEAN_MOTION_DDOT = 0

CCSDS_OMM_VERS = 2.0
CREATION_DATE  = 
ORIGINATOR     = 

OBJECT_NAME    = UNKNOWN
OBJECT_ID      = 
CENTER_NAME    = EARTH
REF_FRAME      = TEME
TIME_SYSTEM    = UTC
MEAN_ELEMENT_THEORY = SGP/SGP4

EPOCH          = 2025-11-08T21:44:47.267232
MEAN_MOTION    = 12.99487929
ECCENTRICITY   = .00145717
INCLINATION    = 90.2747
RA_OF_ASC_NODE = 15.5634
ARG_OF_PERICENTER = 176.2502
MEAN_ANOMALY   = 183.8731

EPHEMERIS_TYPE = 0
CLASSIFICATION_TYPE = U
NORAD_CAT_ID   = 270097
ELEMENT_SET_NO = 999
REV_AT_EPOCH   = 28154
BSTAR          = -.66985181E-3
MEAN_MOTION_DOT = -.193E-5
MEAN_MOTION_DDOT = 0

CCSDS_OMM_VERS = 2.0
CREATION_DATE  = 
ORIGINATOR     = 

OBJECT_NAME    = UNKNOWN
OBJECT_ID      = 
CENTER_NAME    = EARTH
REF_FRAME      = TEME
TIME_SYSTEM    = UTC
MEAN_ELEMENT_THEORY = SGP/SGP4

EPOCH          = 2025-11-09T02:00:02.272896
MEAN_MOTION    = 14.39834459
ECCENTRICITY   = .01676274
INCLINATION    = 98.2819
RA_OF_ASC_NODE = 69.8293
ARG_OF_PERICENTER = 71.2269
MEAN_ANOMALY   = 290.7024

EPHEMERIS_TYPE = 0
CLASSIFICATION_TYPE = U
NORAD_CAT_ID   = 270098
ELEMENT_SET_NO = 999
REV_AT_EPOCH   = 30921
BSTAR          = .20580198E-2
MEAN_MOTION_DOT = .7584E-4
MEAN_MOTION_DDOT = 0

CCSDS_OMM_VERS = 2.0
CREATION_DATE  = 
ORIGINATOR     = 

OBJECT_NAME    = UNKNOWN
OBJECT_ID      = 
CENTER_NAME    = EARTH
REF_FRAME      = TEME
TIME_SYSTEM    = UTC
MEAN_ELEMENT_THEORY = SGP/SGP4

EPOCH          = 2025-11-07T13:22:41.602080
MEAN_MOTION    = 12.54560400
ECCENTRICITY   = .01845633
INCLINATION    = 102.3528
RA_OF_ASC_NODE = 53.5562
ARG_OF_PERICENTER = 138.5596
MEAN_ANOMALY   = 222.9639

EPHEMERIS_TYPE = 0
CLASSIFICATION_TYPE = U
NORAD_CAT_ID   = 270099
ELEMENT_SET_NO = 999
REV_AT_EPOCH   = 27111
BSTAR          = .11586873E-1
MEAN_MOTION_DOT = .1946E-4
MEAN_MOTION_DDOT = 0

CCSDS_OMM_VERS = 2.0
CREATION_DATE  = 
ORIGINATOR     = 

OBJECT_NAME    = UNKNOWN
OBJECT_ID      = 
CENTER_NAME    = EARTH
REF_FRAME      = TEME
TIME_SYSTEM    = UTC
MEAN_ELEMENT_THEORY = SGP/SGP4

EPOCH          = 2025-11-10T18:22:55.225344
MEAN_MOTION    = 14.80046263
ECCENTRICITY   = .00393941
INCLINATION    = 97.3146
RA_OF_ASC_NODE = 324.3077
ARG_OF_PERICENTER = 277.0001
MEAN_ANOMALY   = 82.6733

EPHEMERIS_TYPE = 0
CLASSIFICATION_TYPE = U
NORAD_CAT_ID   = 270100
ELEMENT_SET_NO = 999
REV_AT_EPOCH   = 31278
BSTAR          = .83054638E-2
MEAN_MOTION_DOT = .64233E-3
MEAN_MOTION_DDOT = 0

CCSDS_OMM_VERS = 2.0
CREATION_DATE  = 
ORIGINATOR     = 

OBJECT_NAME    = UNKNOWN
OBJECT_ID      = 
CENTER_NAME    = EARTH
REF_FRAME      = TEME
TIME_SYSTEM    = UTC
MEAN_ELEMENT_THEORY = SGP/SGP4

EPOCH          = 2025-11-08T05:44:17.243808
MEAN_MOTION    = 12.38941362
ECCENTRICITY   = .00948936
INCLINATION    = 102.3617
RA_OF_ASC_NODE = 303.0654
ARG_OF_PERICENTER = 348.9497
MEAN_ANOMALY   = 10.9481

EPHEMERIS_TYPE = 0
CLASSIFICATION_TYPE = U
NORAD_CAT_ID   = 270101
ELEMENT_SET_NO = 999
REV_AT_EPOCH   = 26918
BSTAR          = .29744098E-4
MEAN_MOTION_DOT = -.43E-6
MEAN_MOTION_DDOT = 0

CCSDS_OMM_VERS = 2.0
CREATION_DATE  = 
ORIGINATOR     = 

OBJECT_NAME    = UNKNOWN
OBJECT_ID      = 
CENTER_NAME    = EARTH
REF_FRAME      = TEME
TIME_SYSTEM    = UTC
MEAN_ELEMENT_THEORY = SGP/SGP4

EPOCH          = 2025-11-07T23:18:05.350464
MEAN_MOTION    = 13.02971876
ECCENTRICITY   = .00310293
INCLINATION    = 90.2906
RA_OF_ASC_NODE = 28.7156
ARG_OF_PERICENTER = 24.3737
MEAN_ANOMALY   = 335.8846

EPHEMERIS_TYPE = 0
CLASSIFICATION_TYPE = U
NORAD_CAT_ID   = 270103
ELEMENT_SET_NO = 999
REV_AT_EPOCH   = 28286
BSTAR          = .50966187E-2
MEAN_MOTION_DOT = .1611E-4
MEAN_MOTION_DDOT = 0

CCSDS_OMM_VERS = 2.0
CREATION_DATE  = 
ORIGINATOR     = 

OBJECT_NAME    = UNKNOWN
OBJECT_ID      = 
CENTER_NAME    = EARTH
REF_FRAME      = TEME
TIME_SYSTEM    = UTC
MEAN_ELEMENT_THEORY = SGP/SGP4

EPOCH          = 2025-11-07T10:53:59.546688
MEAN_MOTION    = 12.96125407
ECCENTRICITY   = .00251749
INCLINATION    = 90.2579
RA_OF_ASC_NODE = 10.8377
ARG_OF_PERICENTER = 320.1655
MEAN_ANOMALY   = 39.7616

EPHEMERIS_TYPE = 0
CLASSIFICATION_TYPE = U
NORAD_CAT_ID   = 270104
ELEMENT_SET_NO = 999
REV_AT_EPOCH   = 28141
BSTAR          = .14029623E-2
MEAN_MOTION_DOT = .407E-5
MEAN_MOTION_DDOT = 0

CCSDS_OMM_VERS = 2.0
CREATION_DATE  = 
ORIGINATOR     = 

OBJECT_NAME    = UNKNOWN
OBJECT_ID      = 
CENTER_NAME    = EARTH
REF_FRAME      = TEME
TIME_SYSTEM    = UTC
MEAN_ELEMENT_THEORY = SGP/SGP4

EPOCH          = 2025-11-11T04:57:43.901568
MEAN_MOTION    = 12.40396187
ECCENTRICITY   = .0176384
INCLINATION    = 56.0575
RA_OF_ASC_NODE = 287.2057
ARG_OF_PERICENTER = 57.7769
MEAN_ANOMALY   = 304.0098

EPHEMERIS_TYPE = 0
CLASSIFICATION_TYPE = U
NORAD_CAT_ID   = 270106
ELEMENT_SET_NO = 999
REV_AT_EPOCH   = 26997
BSTAR          = .84545382E-3
MEAN_MOTION_DOT = .26E-6
MEAN_MOTION_DDOT = 0

CCSDS_OMM_VERS = 2.0
CREATION_DATE  = 
ORIGINATOR     = 

OBJECT_NAME    = UNKNOWN
OBJECT_ID      = 
CENTER_NAME    = EARTH
REF_FRAME      = TEME
TIME_SYSTEM    = UTC
MEAN_ELEMENT_THEORY = SGP/SGP4

EPOCH          = 2025-11-11T05:32:12.246720
MEAN_MOTION    = 13.05782679
ECCENTRICITY   = .00171835
INCLINATION    = 90.0196
RA_OF_ASC_NODE = 310.9278
ARG_OF_PERICENTER = 301.3805
MEAN_ANOMALY   = 58.5639

EPHEMERIS_TYPE = 0
CLASSIFICATION_TYPE = U
NORAD_CAT_ID   = 270108
ELEMENT_SET_NO = 999
REV_AT_EPOCH   = 28387
BSTAR          = .14000516E-2
MEAN_MOTION_DOT = .466E-5
MEAN_MOTION_DDOT = 0

CCSDS_OMM_VERS = 2.0
CREATION_DATE  = 
ORIGINATOR     = 

OBJECT_NAME    = UNKNOWN
OBJECT_ID      = 
CENTER_NAME    = EARTH
REF_FRAME      = TEME
TIME_SYSTEM    = UTC
MEAN_ELEMENT_THEORY = SGP/SGP4

EPOCH          = 2025-11-09T10:55:04.144512
MEAN_MOTION    = 12.98342597
ECCENTRICITY   = .00306341
INCLINATION    = 90.2472
RA_OF_ASC_NODE = 8.0442
ARG_OF_PERICENTER = 233.1217
MEAN_ANOMALY   = 126.7095

EPHEMERIS_TYPE = 0
CLASSIFICATION_TYPE = U
NORAD_CAT_ID   = 270110
ELEMENT_SET_NO = 999
REV_AT_EPOCH   = 28197
BSTAR          = .30035434E-2
MEAN_MOTION_DOT = .891E-5
MEAN_MOTION_DDOT = 0

CCSDS_OMM_VERS = 2.0
CREATION_DATE  = 
ORIGINATOR     = 

OBJECT_NAME    = UNKNOWN
OBJECT_ID      = 
CENTER_NAME    = EARTH
REF_FRAME      = TEME
TIME_SYSTEM    = UTC
MEAN_ELEMENT_THEORY = SGP/SGP4

EPOCH          = 2025-11-11T07:38:09.019680
MEAN_MOTION    = 14.38819007
ECCENTRICITY   = .00200802
INCLINATION    = 98.4933
RA_OF_ASC_NODE = 330.9779
ARG_OF_PERICENTER = 208.9395
MEAN_ANOMALY   = 151.0680

EPHEMERIS_TYPE = 0
CLASSIFICATION_TYPE = U
NORAD_CAT_ID   = 270111
ELEMENT_SET_NO = 999
REV_AT_EPOCH   = 31272
BSTAR          = .27472382E-3
MEAN_MOTION_DOT = .803E-5
MEAN_MOTION_DDOT = 0

CCSDS_OMM_VERS = 2.0
CREATION_DATE  = 
ORIGINATOR     = 

OBJECT_NAME    = UNKNOWN
OBJECT_ID      = 
CENTER_NAME    = EARTH
REF_FRAME      = TEME
TIME_SYSTEM    = UTC
MEAN_ELEMENT_THEORY = SGP/SGP4

EPOCH          = 2025-11-04T10:05:34.204128
MEAN_MOTION    = 12.95244280
ECCENTRICITY   = .00305428
INCLINATION    = 90.2387
RA_OF_ASC_NODE = 359.8598
ARG_OF_PERICENTER = 110.7428
MEAN_ANOMALY   = 249.6969

EPHEMERIS_TYPE = 0
CLASSIFICATION_TYPE = U
NORAD_CAT_ID   = 270113
ELEMENT_SET_NO = 999
REV_AT_EPOCH   = 28036
BSTAR          = .83053779E-3
MEAN_MOTION_DOT = .242E-5
MEAN_MOTION_DDOT = 0

